YAOGAN-9 01B            
1 36414U 10009B   25172.83611347 -.00000016  00000+0  57951-4 0  9996
2 36414  63.3686 209.9046 0507412  18.1788 343.6664 13.45606452751252
YAOGAN-9 01C            
1 36415U 10009C   25172.83479961 -.00000038  00000+0  40987-4 0  9996
2 36415  63.3683 210.4485 0508151  18.5017 343.3761 13.45605725751419
ECHOSTAR 14             
1 36499U 10010A   25172.97821997  .00000010  00000+0  00000+0 0  9991
2 36499   0.0179 333.8569 0002078 114.7064  55.1013  1.00268714 55922
CRYOSAT 2               
1 36508U 10013A   25173.18076555  .00000152  00000+0  37060-4 0  9999
2 36508  92.0087 190.3174 0003110  91.3888 268.7676 14.51821456805885
SES-1                   
1 36516U 10016A   25173.15114462 -.00000106  00000+0  00000+0 0  9997
2 36516   0.0260 309.3104 0002437 142.0548 132.6190  1.00271415 55521
COSMOS 2463             
1 36519U 10017A   25172.71384743  .00000038  00000+0  24847-4 0  9996
2 36519  82.9600 154.5777 0037366  51.8033 120.9563 13.71631127758516
ASTRA 3B                
1 36581U 10021A   25172.90739211  .00000146  00000+0  00000+0 0  9995
2 36581   0.5372  88.7688 0003585 355.2054 176.5063  1.00271677 55258
COMSATBW-2              
1 36582U 10021B   25172.86162802  .00000097  00000+0  00000+0 0  9992
2 36582   0.0846  77.9014 0001917  24.3329 131.4405  1.00270518 55342
NAVSTAR 65 (USA 213)    
1 36585U 10022A   25172.73446503  .00000075  00000+0  00000+0 0  9991
2 36585  54.3373 223.0870 0120502  64.0691 118.1489  2.00570071110367
BEIDOU-2 G3             
1 36590U 10024A   25172.87476716 -.00000129  00000+0  00000+0 0  9994
2 36590   3.6623  62.4374 0007918 349.5798 252.7964  1.00272599 55157
BADR-5                  
1 36592U 10025A   25172.86572484  .00000154  00000+0  00000+0 0  9992
2 36592   0.0580 119.2388 0004996   2.5591 126.1435  1.00272007 49602
SJ-12                   
1 36596U 10027A   25173.17249055  .00003613  00000+0  21334-3 0  9998
2 36596  97.7699 178.2939 0005662 248.2278 111.8349 15.12173420820417
TANDEM-X                
1 36605U 10030A   25172.82640441  .00000503  00000+0  27164-4 0  9991
2 36605  97.4459 180.6875 0001813  98.1058 262.0383 15.19147172831935
COMS 1                  
1 36744U 10032A   25172.71995424 -.00000338  00000+0  00000+0 0  9991
2 36744   3.8903  79.8650 0000757   7.4447 210.1425  1.00271674 47474
ARABSAT-5A              
1 36745U 10032B   25172.95253002  .00000162  00000+0  00000+0 0  9991
2 36745   0.0604  45.9763 0004842  51.6425 186.1793  1.00268852 55032
ECHOSTAR 15             
1 36792U 10034A   25172.55426006 -.00000108  00000+0  00000+0 0  9998
2 36792   0.0148 351.4305 0002260 131.3682 250.0365  1.00112399 54788
CARTOSAT-2B             
1 36795U 10035A   25173.14681356  .00000497  00000+0  74511-4 0  9992
2 36795  97.8081 227.5218 0010333 280.8384  79.1665 14.78719091806729
ALSAT 2A                
1 36798U 10035D   25173.19062860  .00000607  00000+0  10018-3 0  9997
2 36798  97.7638 185.8622 0001222  74.0672 286.0671 14.73710510800771
TISAT 1                 
1 36799U 10035E   25172.20313546  .00007340  00000+0  37642-3 0  9992
2 36799  98.0581  86.9827 0004936  70.4973 289.6791 15.16873688812937
BEIDOU-2 IGSO-1         
1 36828U 10036A   25171.90439376 -.00000039  00000+0  00000+0 0  9995
2 36828  54.2770 166.2281 0049696 218.1358 318.2709  1.00275657 54475
NILESAT 201             
1 36830U 10037A   25172.85763153 -.00000048  00000+0  00000+0 0  9997
2 36830   0.0092 270.2094 0004332 206.3551  95.4571  1.00271273 54756
RASCOM-QAF 1R           
1 36831U 10037B   25172.85954289  .00000028  00000+0  00000+0 0  9997
2 36831   0.0159  61.3427 0006537  27.9550 133.3122  1.00271236 54691
YAOGAN-10               
1 36834U 10038A   25173.19675125  .00000490  00000+0  64994-4 0  9998
2 36834  97.9249 194.1860 0001448  95.8825 337.3339 14.84225817803867
AEHF-1 (USA 214)        
1 36868U 10039A   25172.87266838  .00000152  00000+0  00000+0 0  9995
2 36868   7.3139  72.6431 0004266  12.3554 169.4751  1.00276159 50040
COSMOS 2467             
1 37152U 10043A   25172.74865843  .00000021  00000+0  83712-4 0  9995
2 37152  82.4572 290.4744 0001653 165.3176   9.8153 12.42972037670727
STRELA 3                
1 37153U 10043B   25173.12151112  .00000010  00000+0  26501-5 0  9998
2 37153  82.4581 302.6938 0008444 142.1070 218.0604 12.40783486669774
COSMOS 2468             
1 37154U 10043C   25173.04735102  .00000010  00000+0 -19471-5 0  9996
2 37154  82.4610 287.7145 0014116  18.4816 155.2778 12.43732348671172
YAOGAN-11               
1 37165U 10047A   25172.82868811  .00000595  00000+0  83523-4 0  9996
2 37165  98.4268  16.1634 0034499 320.3997  39.4694 14.81175874794735
ZHEDA PIXING 1B         
1 37166U 10047B   25173.14367641  .00001533  00000+0  16736-3 0  9992
2 37166  97.9032 145.1733 0021022  31.0569 329.1886 14.89254484797144
ZHEDA PIXING 1C         
1 37167U 10047C   25173.21210775  .00001482  00000+0  16291-3 0  9995
2 37167  97.9349 147.4090 0020734  35.9397 324.3209 14.89036640797090
SBSS (USA 216)          
1 37168U 10048A   25172.91282249  .00002971  00000+0  15814-3 0  9992
2 37168  97.7846  46.2248 0087579   3.2850 125.5615 15.12797570797932
SHIJIAN-6 04A (SJ-6 04A)
1 37179U 10051A   25173.20092576  .00004070  00000+0  23960-3 0  9996
2 37179  97.8439 180.1940 0021628  26.5619 333.6714 15.12032574802546
SHIJIAN-6 04B (SJ-6 04B)
1 37180U 10051B   25173.18303764  .00000643  00000+0  59165-4 0  9998
2 37180  97.8592 170.3029 0011540  77.0335 283.2175 14.98266825801771
XM-5                    
1 37185U 10053A   25172.69339590 -.00000013  00000+0  00000+0 0  9997
2 37185   0.0407 280.0484 0000506  47.1047  77.4014  1.00269815 53864
GLOBALSTAR M079         
1 37188U 10054A   25172.63513661 -.00000101  00000+0  17667-4 0  9998
2 37188  52.0030 126.2441 0000477 354.7841 175.7405 12.62265155677014
GLOBALSTAR M074         
1 37189U 10054B   25172.58277391 -.00000103  00000+0  66226-5 0  9998
2 37189  52.0003 125.7268 0000554  30.8288 140.2669 12.62257000677614
GLOBALSTAR M076         
1 37190U 10054C   25172.81156831 -.00000119  00000+0 -82736-4 0  9992
2 37190  52.0021 125.2006 0000618  15.8120 356.2300 12.62263210677363
GLOBALSTAR M077         
1 37191U 10054D   25173.14424709 -.00000110  00000+0 -34903-4 0  9996
2 37191  52.0077  81.0463 0000671  51.3343  93.2318 12.62268453678511
GLOBALSTAR M075         
1 37192U 10054E   25172.46267137 -.00000076  00000+0  15438-3 0  9992
2 37192  51.9920 168.5186 0000125  44.8623 120.8276 12.62265893676380
GLOBALSTAR M073         
1 37193U 10054F   25173.17515498 -.00000114  00000+0 -56412-4 0  9990
2 37193  52.0069  80.1715 0000715  41.8096 122.9767 12.62272044678511
BSAT-3B                 
1 37207U 10056B   25172.88076191 -.00000341  00000+0  00000+0 0  9995
2 37207   0.0532 233.5114 0001819 308.8030 154.9195  1.00271094 48483
BEIDOU-2 G4             
1 37210U 10057A   25172.81931101 -.00000105  00000+0  00000+0 0  9992
2 37210   2.7514  70.4565 0004759 178.7690 115.9987  1.00270675 53673
FENGYUN 3B              
1 37214U 10059A   25173.19496829  .00000057  00000+0  53207-4 0  9990
2 37214  99.0118 211.6996 0023041 124.9951 315.4328 14.14733427756563
COSMO-SKYMED 4          
1 37216U 10060A   25173.14010103  .00000334  00000+0  48564-4 0  9994
2 37216  97.8874 356.9648 0001462  90.9416 269.1965 14.82155910791299
SKYTERRA 1              
1 37218U 10061A   25172.69600233 -.00000111  00000+0  00000+0 0  9997
2 37218   4.3606  50.6300 0001598  25.4975 343.2330  1.00271492 53586
O/OREOS (USA 219)       
1 37224U 10062C   25172.43645785  .00001615  00000+0  16717-3 0  9993
2 37224  71.9686 176.1065 0013778  26.4278 333.7591 14.91510965 62817
HYLAS 1                 
1 37237U 10065A   25172.69165829  .00000032  00000+0  00000+0 0  9990
2 37237   4.7267  77.4714 0000812 291.8335  26.4590  1.00270984  3260
INTELSAT 17 (IS-17)     
1 37238U 10065B   25172.89558722  .00000007  00000+0  00000+0 0  9993
2 37238   0.0328  67.3487 0002508  39.4707 191.8895  1.00272443 49634
BEIDOU-2 IGSO-2         
1 37256U 10068A   25172.71364299 -.00000225  00000+0  00000+0 0  9994
2 37256  48.1986 276.2965 0047197 212.9166 144.7477  1.00288022 53176
EUTELSAT KA-SAT 9A      
1 37258U 10069A   25172.87128255  .00000071  00000+0  00000+0 0  9992
2 37258   0.0524 309.4400 0004332 179.8219 103.7035  1.00269877 40392
HISPASAT 30W-5          
1 37264U 10070A   25173.13859411 -.00000208  00000+0  00000+0 0  9999
2 37264   0.0573 105.3023 0005260   6.6262 178.5337  1.00270344 53056
KOREASAT 6              
1 37265U 10070B   25172.81931101 -.00000103  00000+0  00000+0 0  9995
2 37265   0.0201  60.2834 0001708  41.5715 263.2287  1.00270970 53150
BEIDOU-2 IGSO-3         
1 37384U 11013A   25172.45488913 -.00000200  00000+0  00000+0 0  9991
2 37384  61.8907  43.5668 0030644 176.2803 321.5235  1.00264817 52045
RESOURCESAT-2           
1 37387U 11015A   25173.14977444  .00000046  00000+0  41525-4 0  9994
2 37387  98.8081 237.2503 0006198 164.4411 195.6958 14.21575536735558
YOUTHSAT                
1 37388U 11015B   25172.75212998  .00000147  00000+0  79470-4 0  9999
2 37388  98.3250 159.0245 0013831 324.9690 208.6558 14.25399387736284
X-SAT                   
1 37389U 11015C   25173.19207401  .00000091  00000+0  56110-4 0  9996
2 37389  98.3117 163.2517 0013314 324.7999  35.2301 14.25045004736927
INTELSAT 28 (IS-28)     
1 37392U 11016A   25172.85267309 -.00000216  00000+0  00000+0 0  9998
2 37392   0.8736  87.4461 0003866 357.4581 100.6584  1.00271352 49677
YAHSAT 1A               
1 37393U 11016B   25172.88933407  .00000110  00000+0  00000+0 0  9993
2 37393   0.0226  11.0674 0002131  90.4052 181.5112  1.00269990 38795
SBIRS GEO-1 (USA 230)   
1 37481U 11019A   25172.79790266  .00000106  00000+0  00000+0 0  9993
2 37481   3.7519  52.3421 0002140  29.3776 167.5526  1.00272039 51785
